{"type": "FeatureCollection", "features": [ {"type": "Feature", "properties": {"norad_id": 28659, "name": "DIRECTV 8", "group": "intelsat", "lat": 0.017906793979924413, "lon": 87.29375171016542, "alt_km": 35799.53329804025, "timestamp": "2025-12-02T08:59:32.387145+00:00", "meta": {"OBJECT_NAME": "DIRECTV 8", "OBJECT_ID": "2005-019A", "EPOCH": "2025-12-01T16:40:23.687040", "MEAN_MOTION": 1.00271171, "ECCENTRICITY": 0.0003189, "INCLINATION": 0.0147, "RA_OF_ASC_NODE": 288.7925, "ARG_OF_PERICENTER": 328.872, "MEAN_ANOMALY": 304.2088, "EPHEMERIS_TYPE": 0, "CLASSIFICATION_TYPE": "U", "NORAD_CAT_ID": 28659, "ELEMENT_SET_NO": 999, "REV_AT_EPOCH": 7509, "BSTAR": 0, "MEAN_MOTION_DOT": 2.3e-07, "MEAN_MOTION_DDOT": 0}, "tle": {"line1": "1 28659U 05019A   25335.69471860  .00000023  00000+0  00000+0 0  9997", "line2": "2 28659   0.0147 288.7925 0003189 328.8720 304.2088  1.00271171 75092"}}, "geometry": {"type": "Point", "coordinates": [87.29375171016542, 0.017906793979924413]}}, {"type": "Feature", "properties": {"norad_id": 28702, "name": "GALAXY 28 (G-28)", "group": "intelsat", "lat": 1.6574507918137442, "lon": 117.57457013655944, "alt_km": 35795.37945622446, "timestamp": "2025-12-02T08:59:32.387158+00:00", "meta": {"OBJECT_NAME": "GALAXY 28 (G-28)", "OBJECT_ID": "2005-022A", "EPOCH": "2025-12-02T03:05:24.451872", "MEAN_MOTION": 1.00270647, "ECCENTRICITY": 0.000266, "INCLINATION": 2.7916, "RA_OF_ASC_NODE": 81.4017, "ARG_OF_PERICENTER": 180.9183, "MEAN_ANOMALY": 126.5553, "EPHEMERIS_TYPE": 0, "CLASSIFICATION_TYPE": "U", "NORAD_CAT_ID": 28702, "ELEMENT_SET_NO": 999, "REV_AT_EPOCH": 4999, "BSTAR": 0, "MEAN_MOTION_DOT": -1.66e-06, "MEAN_MOTION_DDOT": 0}, "tle": {"line1": "1 28702U 05022A   25336.12875523 -.00000166  00000+0  00000+0 0  9992", "line2": "2 28702   2.7916  81.4017 0002660 180.9183 126.5553  1.00270647 49996"}}, "geometry": {"type": "Point", "coordinates": [117.57457013655944, 1.6574507918137442]}}, {"type": "Feature", "properties": {"norad_id": 29236, "name": "GALAXY 16 (G-16)", "group": "intelsat", "lat": -0.01060987591667733, "lon": 107.31192469567765, "alt_km": 35796.03193777404, "timestamp": "2025-12-02T08:59:32.387186+00:00", "meta": {"OBJECT_NAME": "GALAXY 16 (G-16)", "OBJECT_ID": "2006-023A", "EPOCH": "2025-12-01T15:03:17.987328", "MEAN_MOTION": 1.00270395, "ECCENTRICITY": 0.0002803, "INCLINATION": 0.0267, "RA_OF_ASC_NODE": 225.3015, "ARG_OF_PERICENTER": 25.4892, "MEAN_ANOMALY": 306.776, "EPHEMERIS_TYPE": 0, "CLASSIFICATION_TYPE": "U", "NORAD_CAT_ID": 29236, "ELEMENT_SET_NO": 999, "REV_AT_EPOCH": 7099, "BSTAR": 0, "MEAN_MOTION_DOT": -1.05e-06, "MEAN_MOTION_DDOT": 0}, "tle": {"line1": "1 29236U 06023A   25335.62729152 -.00000105  00000+0  00000+0 0  9990", "line2": "2 29236   0.0267 225.3015 0002803  25.4892 306.7760  1.00270395 70991"}}, "geometry": {"type": "Point", "coordinates": [107.31192469567765, -0.01060987591667733]}}, {"type": "Feature", "properties": {"norad_id": 29494, "name": "DIRECTV 9S", "group": "intelsat", "lat": 0.7218480674370136, "lon": 105.10572844562816, "alt_km": 35796.79172802673, "timestamp": "2025-12-02T08:59:32.387199+00:00", "meta": {"OBJECT_NAME": "DIRECTV 9S", "OBJECT_ID": "2006-043A", "EPOCH": "2025-12-01T11:37:15.220416", "MEAN_MOTION": 1.00270787, "ECCENTRICITY": 0.00031036, "INCLINATION": 1.9085, "RA_OF_ASC_NODE": 83.3306, "ARG_OF_PERICENTER": 164.8437, "MEAN_ANOMALY": 255.5441, "EPHEMERIS_TYPE": 0, "CLASSIFICATION_TYPE": "U", "NORAD_CAT_ID": 29494, "ELEMENT_SET_NO": 999, "REV_AT_EPOCH": 4940, "BSTAR": 0, "MEAN_MOTION_DOT": -9.2e-07, "MEAN_MOTION_DDOT": 0}, "tle": {"line1": "1 29494U 06043A   25335.48420394 -.00000092  00000+0  00000+0 0  9993", "line2": "2 29494   1.9085  83.3306 0003103 164.8437 255.5441  1.00270787 49401"}}, "geometry": {"type": "Point", "coordinates": [105.10572844562816, 0.7218480674370136]}}, {"type": "Feature", "properties": {"norad_id": 31307, "name": "GALAXY 17 (G-17)", "group": "intelsat", "lat": 1.557352350455368, "lon": 121.25260694477979, "alt_km": 35798.07062235685, "timestamp": "2025-12-02T08:59:32.387211+00:00", "meta": {"OBJECT_NAME": "GALAXY 17 (G-17)", "OBJECT_ID": "2007-016B", "EPOCH": "2025-12-01T18:32:32.106912", "MEAN_MOTION": 1.00269561, "ECCENTRICITY": 0.0006148, "INCLINATION": 2.4697, "RA_OF_ASC_NODE": 82.4105, "ARG_OF_PERICENTER": 155.0529, "MEAN_ANOMALY": 26.5643, "EPHEMERIS_TYPE": 0, "CLASSIFICATION_TYPE": "U", "NORAD_CAT_ID": 31307, "ELEMENT_SET_NO": 999, "REV_AT_EPOCH": 6782, "BSTAR": 0, "MEAN_MOTION_DOT": -1.85e-06, "MEAN_MOTION_DDOT": 0}, "tle": {"line1": "1 31307U 07016B   25335.77259383 -.00000185  00000+0  00000+0 0  9993", "line2": "2 31307   2.4697  82.4105 0006148 155.0529  26.5643  1.00269561 67829"}}, "geometry": {"type": "Point", "coordinates": [121.25260694477979, 1.557352350455368]}}, {"type": "Feature", "properties": {"norad_id": 31862, "name": "DIRECTV 10", "group": "intelsat", "lat": -0.003983016859571813, "lon": 103.54674195418661, "alt_km": 35785.923414682315, "timestamp": "2025-12-02T08:59:32.387224+00:00", "meta": {"OBJECT_NAME": "DIRECTV 10", "OBJECT_ID": "2007-032A", "EPOCH": "2025-12-01T15:02:03.106176", "MEAN_MOTION": 1.00272967, "ECCENTRICITY": 3.05e-05, "INCLINATION": 0.0145, "RA_OF_ASC_NODE": 137.1241, "ARG_OF_PERICENTER": 63.3925, "MEAN_ANOMALY": 352.9493, "EPHEMERIS_TYPE": 0, "CLASSIFICATION_TYPE": "U", "NORAD_CAT_ID": 31862, "ELEMENT_SET_NO": 999, "REV_AT_EPOCH": 4361, "BSTAR": 0, "MEAN_MOTION_DOT": -8.2e-07, "MEAN_MOTION_DDOT": 0}, "tle": {"line1": "1 31862U 07032A   25335.62642484 -.00000082  00000+0  00000+0 0  9995", "line2": "2 31862   0.0145 137.1241 0000305  63.3925 352.9493  1.00272967 43610"}}, "geometry": {"type": "Point", "coordinates": [103.54674195418661, -0.003983016859571813]}}, {"type": "Feature", "properties": {"norad_id": 32253, "name": "INTELSAT 11 (IS-11)", "group": "intelsat", "lat": 1.8228584942631443, "lon": 117.5560913168551, "alt_km": 36154.230951028, "timestamp": "2025-12-02T08:59:32.387236+00:00", "meta": {"OBJECT_NAME": "INTELSAT 11 (IS-11)", "OBJECT_ID": "2007-044B", "EPOCH": "2025-12-01T11:41:52.277568", "MEAN_MOTION": 0.99047742, "ECCENTRICITY": 0.00092085, "INCLINATION": 3.0482, "RA_OF_ASC_NODE": 81.103, "ARG_OF_PERICENTER": 159.8514, "MEAN_ANOMALY": 280.3727, "EPHEMERIS_TYPE": 0, "CLASSIFICATION_TYPE": "U", "NORAD_CAT_ID": 32253, "ELEMENT_SET_NO": 999, "REV_AT_EPOCH": 6649, "BSTAR": 0, "MEAN_MOTION_DOT": -2.9e-07, "MEAN_MOTION_DDOT": 0}, "tle": {"line1": "1 32253U 07044B   25335.48741062 -.00000029  00000+0  00000+0 0  9990", "line2": "2 32253   3.0482  81.1030 0009208 159.8514 280.3727  0.99047742 66495"}}, "geometry": {"type": "Point", "coordinates": [117.5560913168551, 1.8228584942631443]}}, {"type": "Feature", "properties": {"norad_id": 32388, "name": "HORIZONS-2", "group": "intelsat", "lat": 1.5905737323076987, "lon": 132.48942889587093, "alt_km": 35798.82257969108, "timestamp": "2025-12-02T08:59:32.387261+00:00", "meta": {"OBJECT_NAME": "HORIZONS-2", "OBJECT_ID": "2007-063B", "EPOCH": "2025-12-01T18:36:01.772064", "MEAN_MOTION": 1.00272703, "ECCENTRICITY": 0.0004861, "INCLINATION": 2.0906, "RA_OF_ASC_NODE": 83.083, "ARG_OF_PERICENTER": 179.2837, "MEAN_ANOMALY": 13.7397, "EPHEMERIS_TYPE": 0, "CLASSIFICATION_TYPE": "U", "NORAD_CAT_ID": 32388, "ELEMENT_SET_NO": 999, "REV_AT_EPOCH": 6583, "BSTAR": 0, "MEAN_MOTION_DOT": -2.32e-06, "MEAN_MOTION_DDOT": 0}, "tle": {"line1": "1 32388U 07063B   25335.77502051 -.00000232  00000+0  00000+0 0  9991", "line2": "2 32388   2.0906  83.0830 0004861 179.2837  13.7397  1.00272703 65835"}}, "geometry": {"type": "Point", "coordinates": [132.48942889587093, 1.5905737323076987]}}, {"type": "Feature", "properties": {"norad_id": 32729, "name": "DIRECTV 11", "group": "intelsat", "lat": 0.0009798398487421633, "lon": 107.1177375562099, "alt_km": 35786.85558632026, "timestamp": "2025-12-02T08:59:32.387276+00:00", "meta": {"OBJECT_NAME": "DIRECTV 11", "OBJECT_ID": "2008-013A", "EPOCH": "2025-12-01T15:03:17.987328", "MEAN_MOTION": 1.00262996, "ECCENTRICITY": 9.13e-05, "INCLINATION": 0.0132, "RA_OF_ASC_NODE": 202.9739, "ARG_OF_PERICENTER": 327.4852, "MEAN_ANOMALY": 26.9234, "EPHEMERIS_TYPE": 0, "CLASSIFICATION_TYPE": "U", "NORAD_CAT_ID": 32729, "ELEMENT_SET_NO": 999, "REV_AT_EPOCH": 4361, "BSTAR": 0, "MEAN_MOTION_DOT": -1.03e-06, "MEAN_MOTION_DDOT": 0}, "tle": {"line1": "1 32729U 08013A   25335.62729152 -.00000103  00000+0  00000+0 0  9990", "line2": "2 32729   0.0132 202.9739 0000913 327.4852  26.9234  1.00262996 43612"}}, "geometry": {"type": "Point", "coordinates": [107.1177375562099, 0.0009798398487421633]}}, {"type": "Feature", "properties": {"norad_id": 32951, "name": "GALAXY 18 (G-18)", "group": "intelsat", "lat": 0.03877464426941124, "lon": 83.30240352416725, "alt_km": 35800.066543041656, "timestamp": "2025-12-02T08:59:32.387288+00:00", "meta": {"OBJECT_NAME": "GALAXY 18 (G-18)", "OBJECT_ID": "2008-024A", "EPOCH": "2025-12-02T02:55:40.385280", "MEAN_MOTION": 1.00272475, "ECCENTRICITY": 0.0003391, "INCLINATION": 0.0216, "RA_OF_ASC_NODE": 340.739, "ARG_OF_PERICENTER": 273.8284, "MEAN_ANOMALY": 97.5532, "EPHEMERIS_TYPE": 0, "CLASSIFICATION_TYPE": "U", "NORAD_CAT_ID": 32951, "ELEMENT_SET_NO": 999, "REV_AT_EPOCH": 4387, "BSTAR": 0, "MEAN_MOTION_DOT": 0, "MEAN_MOTION_DDOT": 0}, "tle": {"line1": "1 32951U 08024A   25336.12199520  .00000000  00000+0  00000+0 0  9990", "line2": "2 32951   0.0216 340.7390 0003391 273.8284  97.5532  1.00272475 43878"}}, "geometry": {"type": "Point", "coordinates": [83.30240352416725, 0.03877464426941124]}}]}